[{"OBJECT_NAME":"PROBA-1","OBJECT_ID":"2001-049B","EPOCH":"2026-03-09T22:57:25.772256","MEAN_MOTION":15.07031721,"ECCENTRICITY":0.00568356,"INCLINATION":97.9638,"RA_OF_ASC_NODE":74.0417,"ARG_OF_PERICENTER":98.1776,"MEAN_ANOMALY":262.5903,"EPHEMERIS_TYPE":0,"CLASSIFICATION_TYPE":"U","NORAD_CAT_ID":26958,"ELEMENT_SET_NO":999,"REV_AT_EPOCH":32867,"BSTAR":0.00028513173,"MEAN_MOTION_DOT":4.362e-5,"MEAN_MOTION_DDOT":0},{"OBJECT_NAME":"STARLINK-4328","OBJECT_ID":"2022-077AE","EPOCH":"2026-03-09T22:12:51.901344","MEAN_MOTION":15.05650874,"ECCENTRICITY":0.00013606,"INCLINATION":97.6026,"RA_OF_ASC_NODE":251.5349,"ARG_OF_PERICENTER":83.1833,"MEAN_ANOMALY":276.9549,"EPHEMERIS_TYPE":0,"CLASSIFICATION_TYPE":"U","NORAD_CAT_ID":53071,"ELEMENT_SET_NO":999,"REV_AT_EPOCH":20102,"BSTAR":3.1406158e-5,"MEAN_MOTION_DOT":3.92e-6,"MEAN_MOTION_DDOT":0}]
